HAWK-11B                
1 62379U 24247C   26068.44730104  .00009093  00000+0  32842-3 0  9993
2 62379  45.0161 115.7610 0004690 333.0326  27.0314 15.28847070 67738
STARLINK-32841          
1 62865U 25022M   26068.45233147  .00034344  00000+0  11668-2 0  9990
2 62865  53.1577 130.7280 0001346  81.5163 278.5991 15.30186569 61851
